_id,name,address,city,state,pincode,phone,email,profile_url,contact_person,category,open_hours,map_location,services[0],services[1],services[2],services[3]
67cdda3e725df3b508c6470f,Trident Scans And Labs,"Sreekaryam, Thiruvananthapuram",Thiruvananthapuram,Kerala,695017,+91-9847100001,tridentscansandlabs@keraladiagnostics.in,https://www.keraladiagnostics.in/trident-scans-and-labs,Dr. Sreekumar Nair,Medical Diagnosis Lab,8 AM - 8 PM,"https://www.google.com/maps/search/?api=1&query=Sreekaryam,+Thiruvananthapuram+695017",X-Ray,CT Scan,MRI,Ultrasound
67cdda3e725df3b508c64710,Dr. Ramachandran's Diagonastic services And Diabetes Clinic,"Rajni, Kumarapuram, Thiruvananthapuram",Thiruvananthapuram,Kerala,695011,+91-9847100002,drramachandransclinic@keraladiagnostics.in,https://www.keraladiagnostics.in/dr-ramachandrans-diagonastic-services,Dr. Ramachandran Pillai,Medical Diagnosis Lab,8 AM - 8 PM,"https://www.google.com/maps/search/?api=1&query=Rajni,+Kumarapuram,+Thiruvananthapuram+695011",Blood Tests,Diabetes Screening,Glucose Tolerance,
67cdda3e725df3b508c64711,Metro Scans Laboratory,"Mediplaza, Ulloor, Thiruvananthapuram",Thiruvananthapuram,Kerala,695011,+91-9847100003,metroscanslab@keraladiagnostics.in,https://www.keraladiagnostics.in/metro-scans-laboratory,Dr. Rajeev Menon,Medical Diagnosis Lab,8 AM - 8 PM,"https://www.google.com/maps/search/?api=1&query=Mediplaza,+Ulloor,+Thiruvananthapuram+695011",X-Ray,Ultrasound,CT Scan,
67cdda3e725df3b508c64712,Saraswathy Hospital,"Main Road, Pavathiyanvila, Parassala, Thiruvananthapuram",Thiruvananthapuram,Kerala,695502,+91-9847100004,saraswathyhospital@keraladiagnostics.in,https://www.keraladiagnostics.in/saraswathy-hospital,Dr. Lakshmi Pillai,Medical Diagnosis Lab,8 AM - 8 PM,"https://www.google.com/maps/search/?api=1&query=Main+Road,+Pavathiyanvila,+Parassala,+Thiruvananthapuram+695502",Blood Tests,ECG,Ultrasound,
67cdda3e725df3b508c64713,Devi Scans Pvt Ltd,"Kumarapuram Medical College Road, Kumarapuram, Thiruvananthapuram",Thiruvananthapuram,Kerala,695011,+91-9847100005,deviscans@keraladiagnostics.in,https://www.keraladiagnostics.in/devi-scans-pvt-ltd,Dr. Devi Nair,Medical Diagnosis Lab,8 AM - 8 PM,"https://www.google.com/maps/search/?api=1&query=Kumarapuram+Medical+College+Road,+Kumarapuram,+Thiruvananthapuram+695011",CT Scan,MRI,Ultrasound,
67cdda3e725df3b508c64714,Nathani's Diagnostic Clinic,"NH 47, Pattom Chalakuzhi Junction, Pattom, Thiruvananthapuram",Thiruvananthapuram,Kerala,695004,+91-9847100006,nathanidiagnostic@keraladiagnostics.in,https://www.keraladiagnostics.in/nathanis-diagnostic-clinic,Dr. Abinaya Nair,Medical Diagnosis Lab,8 AM - 8 PM,"https://www.google.com/maps/search/?api=1&query=NH+47,+Pattom+Chalakuzhi+Junction,+Pattom,+Thiruvananthapuram+695004",Blood Tests,Urine Analysis,ECG,
67cdda3e725df3b508c64715,Doctors Diagnostic & Research Centre,"Aster Square, Ulloor Road, Thiruvananthapuram Medical College, Thiruvananthapuram",Thiruvananthapuram,Kerala,695011,+91-9847100007,ddrc@keraladiagnostics.in,https://www.keraladiagnostics.in/doctors-diagnostic-research-centre,Dr. Mohan Mathew,Medical Diagnosis Lab,8 AM - 8 PM,"https://www.google.com/maps/search/?api=1&query=Aster+Square,+Ulloor+Road,+Thiruvananthapuram+Medical+College,+Thiruvananthapuram+695011",Blood Tests,Urine Analysis,X-Ray,
67cdda3e725df3b508c64716,Doctors Advanced Diagnostics (Dad),"Surur Building, Kumarapuram–Medical College, Kumarapuram, Thiruvananthapuram",Thiruvananthapuram,Kerala,695011,+91-9847100008,dad@keraladiagnostics.in,https://www.keraladiagnostics.in/doctors-advanced-diagnostics,Dr. Anoop Varghese,Medical Diagnosis Lab,8 AM - 8 PM,"https://www.google.com/maps/search/?api=1&query=Surur+Building,+Kumarapuram–Medical+College,+Kumarapuram,+Thiruvananthapuram+695011",CT Scan,MRI,Ultrasound,
67cdda3e725df3b508c64717,Ddrc Srl Diagnostics Pvt Ltd,"Aster Square, Ullor Road, Thycaud, Thiruvananthapuram",Thiruvananthapuram,Kerala,695014,+91-9847100009,ddrcsrl@keraladiagnostics.in,https://www.keraladiagnostics.in/ddrc-srl-diagnostics,Dr. Suresh Kumar,Medical Diagnosis Lab,8 AM - 8 PM,"https://www.google.com/maps/search/?api=1&query=Aster+Square,+Ullor+Road,+Thycaud,+Thiruvananthapuram+695014",X-Ray,CT Scan,MRI,
67cdda3e725df3b508c64718,Ss Medical Center,"Kazhakoottam Thaikod Road, Chanthavila, Thiruvananthapuram",Thiruvananthapuram,Kerala,695584,+91-9847100010,ssmedical@keraladiagnostics.in,https://www.keraladiagnostics.in/ss-medical-center,Dr. Shibu Pillai,Medical Diagnosis Lab,8 AM - 8 PM,"https://www.google.com/maps/search/?api=1&query=Kazhakoottam+Thaikod+Road,+Chanthavila,+Thiruvananthapuram+695584",Blood Tests,ECG,Ultrasound,
67cdda3e725df3b508c64719,Metro Scans & Laboratory,"Srudhylayam Building, Salem Kanyakumari Highway, Attingal, Thiruvananthapuram",Thiruvananthapuram,Kerala,695101,+91-9847100011,metroscanslab2@keraladiagnostics.in,https://www.keraladiagnostics.in/metro-scans-laboratory-2,Dr. Hariharan Nair,Medical Diagnosis Lab,8 AM - 8 PM,"https://www.google.com/maps/search/?api=1&query=Srudhylayam+Building,+Salem+Kanyakumari+Highway,+Attingal,+Thiruvananthapuram+695101",CT Scan,MRI,X-Ray,
67cdda3e725df3b508c6471a,Ddrc Srl Diagnostic Services,"Building No. 48l1 1 12, Bala Tower, Trivandrum Vizhinjam Road, Ambalathara, Thiruvananthapuram",Thiruvananthapuram,Kerala,695026,+91-9847100012,ddrcdiagnostic@keraladiagnostics.in,https://www.keraladiagnostics.in/ddrc-diagnostic-services,Dr. Unnikrishnan Menon,Medical Diagnosis Lab,8 AM - 8 PM,"https://www.google.com/maps/search/?api=1&query=Building+No.+48l1+1+12,+Bala+Tower,+Trivandrum+Vizhinjam+Road,+Ambalathara,+Thiruvananthapuram+695026",Blood Tests,ECG,Ultrasound,
67cdda3e725df3b508c6471b,Modern Laboratories,"Tb Junction Hospital, Jct Road, Alummoodu, Neyyattinkara, Thiruvananthapuram",Thiruvananthapuram,Kerala,695121,+91-9847100013,modernlabs@keraladiagnostics.in,https://www.keraladiagnostics.in/modern-laboratories,Dr. Jaison Varghese,Medical Diagnosis Lab,8 AM - 8 PM,"https://www.google.com/maps/search/?api=1&query=Tb+Junction+Hospital,+Jct+Road,+Alummoodu,+Neyyattinkara,+Thiruvananthapuram+695121",Blood Tests,Urine Analysis,X-Ray,
67cdda3e725df3b508c6471c,Biocare Ct Scan Center,"Sree Ramakrishna Mission Hospital, Sasthamangalam Road, Sasthamangalam, Thiruvananthapuram",Thiruvananthapuram,Kerala,695010,+91-9847100014,biocarect@keraladiagnostics.in,https://www.keraladiagnostics.in/biocare-ct-scan-center,Dr. Biju George,Medical Diagnosis Lab,8 AM - 8 PM,"https://www.google.com/maps/search/?api=1&query=Sree+Ramakrishna+Mission+Hospital,+Sasthamangalam+Road,+Sasthamangalam,+Thiruvananthapuram+695010",CT Scan,MRI,Ultrasound,
67cdda3e725df3b508c6471d,Clinical Diagnostic & Research Centre,"Raunak Bhavan Cdrc Building, Manacaud, Thiruvananthapuram",Thiruvananthapuram,Kerala,695009,+91-9847100015,clinicalcdrc@keraladiagnostics.in,https://www.keraladiagnostics.in/clinical-diagnostic-research-centre,Dr. Pradeep Kumar,Medical Diagnosis Lab,8 AM - 8 PM,"https://www.google.com/maps/search/?api=1&query=Raunak+Bhavan+Cdrc+Building,+Manacaud,+Thiruvananthapuram+695009",Blood Tests,Urine Analysis,ECG,
67cdda3e725df3b508c6471e,Ddrc Srl Diagnostic Services,"Nandavanam, Bakery Junction Road, Vazhuthacaud, Thiruvananthapuram",Thiruvananthapuram,Kerala,695014,+91-9847100016,ddrcbakery@keraladiagnostics.in,https://www.keraladiagnostics.in/ddrc-diagnostic-services-bakery,Dr. Ashok Kumar,Medical Diagnosis Lab,8 AM - 8 PM,"https://www.google.com/maps/search/?api=1&query=Nandavanam,+Bakery+Junction+Road,+Vazhuthacaud,+Thiruvananthapuram+695014",Blood Tests,X-Ray,ECG,
67cdda3e725df3b508c6471f,Ddrc SRL Diagnostic Services,"Ddrc Srl Building Number TC 56/29, Pappanamkode, Thiruvananthapuram",Thiruvananthapuram,Kerala,695018,+91-9847100017,ddrcpappanamkode@keraladiagnostics.in,https://www.keraladiagnostics.in/ddrc-diagnostic-services-pappanamkode,Dr. Anil Thomas,Medical Diagnosis Lab,8 AM - 8 PM,"https://www.google.com/maps/search/?api=1&query=Ddrc+Srl+Building+Number+TC+56/29,+Pappanamkode,+Thiruvananthapuram+695018",CT Scan,MRI,,
67cdda3e725df3b508c64720,Ddrc Srl Diagnostics Pvt Ltd,"No PP-I/1548, L S Plaza, Kilimanoor, Thiruvananthapuram",Thiruvananthapuram,Kerala,695601,+91-9847100018,ddrckilimanoor@keraladiagnostics.in,https://www.keraladiagnostics.in/ddrc-diagnostics-kilimanoor,Dr. Vinod Kumar,Medical Diagnosis Lab,8 AM - 8 PM,"https://www.google.com/maps/search/?api=1&query=No+PP-I/1548,+L+S+Plaza,+Kilimanoor,+Thiruvananthapuram+695601",Blood Tests,ECG,,
67cdda3e725df3b508c64721,Ddrc SRL Diagnostic Services,"No. 19/132, Orion Plaza, National Highway Road, Balaramapuram, Thiruvananthapuram",Thiruvananthapuram,Kerala,695501,+91-9847100019,ddrcorion@keraladiagnostics.in,https://www.keraladiagnostics.in/ddrc-diagnostic-services-orion,Dr. Ramesh Kumar,Medical Diagnosis Lab,8 AM - 8 PM,"https://www.google.com/maps/search/?api=1&query=No.+19/132,+Orion+Plaza,+National+Highway+Road,+Balaramapuram,+Thiruvananthapuram+695501",Blood Tests,Urine Analysis,ECG,
67cdda3e725df3b508c64722,Bio Products & Diagnostics Pvt Ltd,"Plot No: 22/23, Manvila Industrial Estate, Manvila, Thiruvananthapuram",Thiruvananthapuram,Kerala,695011,+91-9847100020,bioproducts@keraladiagnostics.in,https://www.keraladiagnostics.in/bio-products-diagnostics,Dr. Jayaprakash Nair,Medical Diagnosis Lab,8 AM - 8 PM,"https://www.google.com/maps/search/?api=1&query=Plot+No:+22/23,+Manvila+Industrial+Estate,+Manvila,+Thiruvananthapuram+695011",Blood Tests,X-Ray,ECG,
67cdda3e725df3b508c64723,Ddrc Diagnostic Services,"TC 37/1932(9) Ground Floor, West Fort, Thiruvananthapuram Fort, Thiruvananthapuram",Thiruvananthapuram,Kerala,695023,+91-9847100021,ddrcwestfort@keraladiagnostics.in,https://www.keraladiagnostics.in/ddrc-diagnostic-westfort,Dr. Sajeev Pillai,Medical Diagnosis Lab,8 AM - 8 PM,"https://www.google.com/maps/search/?api=1&query=TC+37/1932(9)+Ground+Floor,+West+Fort,+Thiruvananthapuram+Fort,+Thiruvananthapuram+695023",Blood Tests,ECG,,
67cdda3e725df3b508c64724,Care & Cure Home Health Care Service,"Thookuvila, Eastae Road, Pappanamkode, Thiruvananthapuram",Thiruvananthapuram,Kerala,695018,+91-9847100022,careandcure@keraladiagnostics.in,https://www.keraladiagnostics.in/care-and-cure-home-health,Dr. Meera Nair,Medical Diagnosis Lab,8 AM - 8 PM,"https://www.google.com/maps/search/?api=1&query=Thookuvila,+Eastae+Road,+Pappanamkode,+Thiruvananthapuram+695018",Blood Tests,Urine Analysis,,
67cdda3e725df3b508c64725,Ddrc Srl Diagnostics Pvt Ltd,"Pulimoodu, Thiruvananthapuram",Thiruvananthapuram,Kerala,695001,+91-9847100023,ddrcpulimoodu@keraladiagnostics.in,https://www.keraladiagnostics.in/ddrc-diagnostics-pulimoodu,Dr. Ajith Kumar,Medical Diagnosis Lab,8 AM - 8 PM,"https://www.google.com/maps/search/?api=1&query=Pulimoodu,+Thiruvananthapuram+695001",X-Ray,CT Scan,,
67cdda3e725df3b508c64726,Care & Cure Hospital,"Vishnu Nagar, Pappanamcode (Malayinkeezhu Road), Pappanamcode, Thiruvananthapuram",Thiruvananthapuram,Kerala,695018,+91-9847100024,carecurehospital@keraladiagnostics.in,https://www.keraladiagnostics.in/care-and-cure-hospital,Dr. Radhika Menon,Medical Diagnosis Lab,8 AM - 8 PM,"https://www.google.com/maps/search/?api=1&query=Vishnu+Nagar,+Pappanamcode+(Malayinkeezhu+Road),+Pappanamcode,+Thiruvananthapuram+695018",Blood Tests,ECG,Ultrasound,
67cdda3e725df3b508c64727,Iris Laboratory Diagnostics Center,"1st Floor, Melody Appartment, Road, Pangappara, Thiruvananthapuram",Thiruvananthapuram,Kerala,695581,+91-9847100025,irislab@keraladiagnostics.in,https://www.keraladiagnostics.in/iris-laboratory-diagnostics,Dr. Sindhu George,Medical Diagnosis Lab,8 AM - 8 PM,"https://www.google.com/maps/search/?api=1&query=1st+Floor,+Melody+Appartment,+Road,+Pangappara,+Thiruvananthapuram+695581",Blood Tests,Urine Analysis,ECG,
67cdda3e725df3b508c64728,Anderson Diagnostics & Labs,"Sna 115, Sankar Nagar, Sivapriya, Neeramankara, Thiruvananthapuram",Thiruvananthapuram,Kerala,695040,+91-9847100026,andersonlabs@keraladiagnostics.in,https://www.keraladiagnostics.in/anderson-diagnostics-labs,Dr. Sreekumar Pillai,Medical Diagnosis Lab,8 AM - 8 PM,"https://www.google.com/maps/search/?api=1&query=Sna+115,+Sankar+Nagar,+Sivapriya,+Neeramankara,+Thiruvananthapuram+695040",X-Ray,CT Scan,MRI,
67cdda3e725df3b508c64729,Ravi Memorial Clinic & Diagnostic Lab,"Pallichal Punnamoodu Road, Kalliyoor, Thiruvananthapuram",Thiruvananthapuram,Kerala,695042,+91-9847100027,ravimemorial@keraladiagnostics.in,https://www.keraladiagnostics.in/ravi-memorial-clinic,Dr. Ravi Varghese,Medical Diagnosis Lab,8 AM - 8 PM,"https://www.google.com/maps/search/?api=1&query=Pallichal+Punnamoodu+Road,+Kalliyoor,+Thiruvananthapuram+695042",Blood Tests,ECG,,
67cdda3e725df3b508c6472a,Ev Diagnostic Laboratory,"Thoppumukku, Murukkumpuzha, Thiruvananthapuram",Thiruvananthapuram,Kerala,695302,+91-9847100028,evdiagnostic@keraladiagnostics.in,https://www.keraladiagnostics.in/ev-diagnostic-laboratory,Dr. Ebin Thomas,Medical Diagnosis Lab,8 AM - 8 PM,"https://www.google.com/maps/search/?api=1&query=Thoppumukku,+Murukkumpuzha,+Thiruvananthapuram+695302",X-Ray,Ultrasound,,
67cdda3e725df3b508c6472b,Ddrc SRL Diagnostics Pvt Ltd,"No PP-9/95(2), Ground Floor, Kattaikonam – Pothencode Road, Pothencode, Thiruvananthapuram",Thiruvananthapuram,Kerala,695584,+91-9847100029,ddrckattaikonam@keraladiagnostics.in,https://www.keraladiagnostics.in/ddrc-diagnostics-kattaikonam,Dr. Nandakumar,Medical Diagnosis Lab,8 AM - 8 PM,"https://www.google.com/maps/search/?api=1&query=No+PP-9/95(2),+Ground+Floor,+Kattaikonam+–+Pothencode+Road,+Pothencode,+Thiruvananthapuram+695584",CT Scan,MRI,,
67cdda3e725df3b508c6472c,V.s. Diagnostic Centre,"Sree Viswam Building, Pothencode, Thiruvananthapuram",Thiruvananthapuram,Kerala,695584,+91-9847100030,vsdiagnostic@keraladiagnostics.in,https://www.keraladiagnostics.in/vs-diagnostic-centre,Dr. Vinu Mathew,Medical Diagnosis Lab,8 AM - 8 PM,"https://www.google.com/maps/search/?api=1&query=Sree+Viswam+Building,+Pothencode,+Thiruvananthapuram+695584",Blood Tests,ECG,,
67cdda3e725df3b508c6472d,Dr. Grija'S Laboratory and Scans,"Valiyakada, Chirayinkeezhu, Thiruvananthapuram",Thiruvananthapuram,Kerala,695304,+91-9847100031,grijalab@keraladiagnostics.in,https://www.keraladiagnostics.in/dr-grijas-laboratory-scans,Dr. Grija Nair,Medical Diagnosis Lab,8 AM - 8 PM,"https://www.google.com/maps/search/?api=1&query=Valiyakada,+Chirayinkeezhu,+Thiruvananthapuram+695304",CT Scan,MRI,,
67cdda3e725df3b508c6472e,DDRC SRL Diagnostics Pvt Ltd,"SRKM Hospital Road, Sasthamangalam, Thiruvananthapuram",Thiruvananthapuram,Kerala,695010,+91-9847100032,ddrcsrkm@keraladiagnostics.in,https://www.keraladiagnostics.in/ddrc-srl-srkm,Dr. Deepak Nair,Medical Diagnosis Lab,8 AM - 8 PM,"https://www.google.com/maps/search/?api=1&query=SRKM+Hospital+Road,+Sasthamangalam,+Thiruvananthapuram+695010",Blood Tests,ECG,Ultrasound,
67cdda3e725df3b508c6472f,Amma Diagnostic Center,"Maranalloor, Thiruvananthapuram",Thiruvananthapuram,Kerala,695512,+91-9847100033,ammadiagnostic@keraladiagnostics.in,https://www.keraladiagnostics.in/amma-diagnostic-center,Dr. Ammu Nair,Medical Diagnosis Lab,8 AM - 8 PM,"https://www.google.com/maps/search/?api=1&query=Maranalloor,+Thiruvananthapuram+695512",Blood Tests,Urine Analysis,,
67cdda3e725df3b508c64730,Ddrc Srl Diagnostics Pvt Ltd,"Tc 10/588(456), Nirmalayam Building, Hospital Road, Peroorkkada, Thiruvananthapuram",Thiruvananthapuram,Kerala,695005,+91-9847100034,ddrcperoorkkada@keraladiagnostics.in,https://www.keraladiagnostics.in/ddrc-diagnostics-peroorkkada,Dr. Arun Pillai,Medical Diagnosis Lab,8 AM - 8 PM,"https://www.google.com/maps/search/?api=1&query=Tc+10/588(456),+Nirmalayam+Building,+Hospital+Road,+Peroorkkada,+Thiruvananthapuram+695005",Blood Tests,X-Ray,,
67cdda3e725df3b508c64731,Doctors Diagnostic Laboratory,"Kallambalam Road, Varkala, Thiruvananthapuram",Thiruvananthapuram,Kerala,695141,+91-9847100035,doctorsdiagnostic@keraladiagnostics.in,https://www.keraladiagnostics.in/doctors-diagnostic-laboratory,Dr. Babu Menon,Medical Diagnosis Lab,8 AM - 8 PM,"https://www.google.com/maps/search/?api=1&query=Kallambalam+Road,+Varkala,+Thiruvananthapuram+695141",Blood Tests,Urine Analysis,ECG,
67cdda3e725df3b508c64732,Devi Scans & Laboratories,"Tc 17/560, Ground Floor City Plaza, Medical College – Ulloor Road, Thiruvananthapuram Medical College, Thiruvananthapuram",Thiruvananthapuram,Kerala,695011,+91-9847100036,deviscanslabs@keraladiagnostics.in,https://www.keraladiagnostics.in/devi-scans-laboratories,Dr. Devi Varghese,Medical Diagnosis Lab,8 AM - 8 PM,"https://www.google.com/maps/search/?api=1&query=Tc+17/560,+Ground+Floor+City+Plaza,+Medical+College+–+Ulloor+Road,+Thiruvananthapuram+Medical+College,+Thiruvananthapuram+695011",CT Scan,MRI,Ultrasound,
67cdda3e725df3b508c64733,Karthika Diagnostic Centre,"Thempammoodu, Thiruvananthapuram",Thiruvananthapuram,Kerala,695607,+91-9847100037,karthikadiagnostic@keraladiagnostics.in,https://www.keraladiagnostics.in/karthika-diagnostic-centre,Dr. Karthika Menon,Medical Diagnosis Lab,8 AM - 8 PM,"https://www.google.com/maps/search/?api=1&query=Thempammoodu,+Thiruvananthapuram+695607",Blood Tests,ECG,Ultrasound,
67cdda3e725df3b508c64734,Medicare Lab & ECG,"Main Road, Hospital Junction, Neyyattinkara, Thiruvananthapuram",Thiruvananthapuram,Kerala,695121,+91-9847100038,medicarelab@keraladiagnostics.in,https://www.keraladiagnostics.in/medicare-lab-ecg,Dr. Madhusudhan,Medical Diagnosis Lab,8 AM - 8 PM,"https://www.google.com/maps/search/?api=1&query=Main+Road,+Hospital+Junction,+Neyyattinkara,+Thiruvananthapuram+695121",ECG,Blood Tests,,
67cdda3e725df3b508c64735,St.Alphonsa Diagnostic Centre,"Palode, Thiruvananthapuram",Thiruvananthapuram,Kerala,695562,+91-9847100039,stalphonsa@keraladiagnostics.in,https://www.keraladiagnostics.in/st-alphonsa-diagnostic-centre,Dr. Alphonsa George,Medical Diagnosis Lab,8 AM - 8 PM,"https://www.google.com/maps/search/?api=1&query=Palode,+Thiruvananthapuram+695562",Blood Tests,X-Ray,,
67cdda3e725df3b508c64736,Nirnaya Laboratory,"Laboratory, Kunampana, Kunnathukal, Thiruvananthapuram",Thiruvananthapuram,Kerala,695504,+91-9847100040,nirnayalab@keraladiagnostics.in,https://www.keraladiagnostics.in/nirnaya-laboratory,Dr. Nirmala Nair,Medical Diagnosis Lab,8 AM - 8 PM,"https://www.google.com/maps/search/?api=1&query=Laboratory,+Kunampana,+Kunnathukal,+Thiruvananthapuram+695504",Blood Tests,Urine Analysis,,
67cdda3e725df3b508c64737,Ddrc Srl,"Edapazhanji, Pangode Military Road, Thirumala, Thiruvananthapuram",Thiruvananthapuram,Kerala,695006,+91-9847100041,ddrcsrl@keraladiagnostics.in,https://www.keraladiagnostics.in/ddrc-srl,Dr. Dilip Kumar,Medical Diagnosis Lab,8 AM - 8 PM,"https://www.google.com/maps/search/?api=1&query=Edapazhanji,+Pangode+Military+Road,+Thirumala,+Thiruvananthapuram+695006",Blood Tests,ECG,,
67cdda3e725df3b508c64738,Endocrinology & Diabetes Practice,"Tc 1/2138(2), Kumarapuram – Murinjapalam Road, Pattom, Thiruvananthapuram",Thiruvananthapuram,Kerala,695004,+91-9847100042,endo.diabetes@keraladiagnostics.in,https://www.keraladiagnostics.in/endocrinology-diabetes-practice,Dr. Endo Varghese,Medical Diagnosis Lab,8 AM - 8 PM,"https://www.google.com/maps/search/?api=1&query=Tc+1/2138(2),+Kumarapuram+–+Murinjapalam+Road,+Pattom,+Thiruvananthapuram+695004",Blood Tests,Glucose Analysis,,
67cdda3e725df3b508c64739,Ddrc Srl Diagnostics Pvt Ltd,"No. 82/1730(1), Mridunga Tower, Pattoor Road, Pattoor, Thiruvananthapuram",Thiruvananthapuram,Kerala,695035,+91-9847100043,ddrcmridunga@keraladiagnostics.in,https://www.keraladiagnostics.in/ddrc-diagnostics-mridunga,Dr. Manu Menon,Medical Diagnosis Lab,8 AM - 8 PM,"https://www.google.com/maps/search/?api=1&query=No.+82/1730(1),+Mridunga+Tower,+Pattoor+Road,+Pattoor,+Thiruvananthapuram+695035",Blood Tests,ECG,Urine Analysis,
67cdda3e725df3b508c6473a,Reliant Diagnostics,"Kalakaumudi Road, Kumarapuram, Manacaud, Thiruvananthapuram",Thiruvananthapuram,Kerala,695009,+91-9847100044,reliant@keraladiagnostics.in,https://www.keraladiagnostics.in/reliant-diagnostics,Dr. Raju Kumar,Medical Diagnosis Lab,8 AM - 8 PM,"https://www.google.com/maps/search/?api=1&query=Kalakaumudi+Road,+Kumarapuram,+Manacaud,+Thiruvananthapuram+695009",Blood Tests,ECG,,
67cdda3e725df3b508c6473b,Akshaya Clinical Laboratory,"R.J. Complex, BTS Road, Attingal, Thiruvananthapuram",Thiruvananthapuram,Kerala,695101,+91-9847100045,akshayaclinical@keraladiagnostics.in,https://www.keraladiagnostics.in/akshaya-clinical-laboratory,Dr. Akshaya Pillai,Medical Diagnosis Lab,8 AM - 8 PM,"https://www.google.com/maps/search/?api=1&query=R.J.+Complex,+BTS+Road,+Attingal,+Thiruvananthapuram+695101",Blood Tests,Urine Analysis,,
67cdda3e725df3b508c6473c,Alpha Diagnostic Centre,"Maruthamkuzy, Thiruvananthapuram",Thiruvananthapuram,Kerala,695601,+91-9847100046,alphadiagnostic@keraladiagnostics.in,https://www.keraladiagnostics.in/alpha-diagnostic-centre,Dr. Alphons Joseph,Medical Diagnosis Lab,8 AM - 8 PM,"https://www.google.com/maps/search/?api=1&query=Maruthamkuzy,+Thiruvananthapuram+695601",Blood Tests,ECG,Urine Analysis,
67cdda3e725df3b508c6473d,Ddrc Well Spring Pathlab Pvt Ltd,"Post Box No 2488, Ulloor Medical College PO, Ulloor, Thiruvananthapuram",Thiruvananthapuram,Kerala,695011,+91-9847100047,wellspathlab@keraladiagnostics.in,https://www.keraladiagnostics.in/well-spring-pathlab,Dr. Wellson Nair,Medical Diagnosis Lab,8 AM - 8 PM,"https://www.google.com/maps/search/?api=1&query=Post+Box+No+2488,+Ulloor+Medical+College+PO,+Ulloor,+Thiruvananthapuram+695011",Blood Tests,X-Ray,,
67cdda3e725df3b508c6473e,Amma Clinical Laboratory,"No.71/2234, Srivalsam Tower, Angalamman Kovil Street, Aryasala, Thiruvananthapuram",Thiruvananthapuram,Kerala,695036,+91-9847100048,ammaclinical@keraladiagnostics.in,https://www.keraladiagnostics.in/amma-clinical-laboratory,Dr. Ammu Varghese,Medical Diagnosis Lab,8 AM - 8 PM,"https://www.google.com/maps/search/?api=1&query=No.71/2234,+Srivalsam+Tower,+Angalamman+Kovil+Street,+Aryasala,+Thiruvananthapuram+695036",Blood Tests,Urine Analysis,ECG,
67cdda3e725df3b508c6473f,Devi Scans,"Cherukara Gardens, Poojapura, Poojappura, Thiruvananthapuram",Thiruvananthapuram,Kerala,695012,+91-9847100049,deviscans@keraladiagnostics.in,https://www.keraladiagnostics.in/devi-scans,Dr. Devi Pillai,Medical Diagnosis Lab,8 AM - 8 PM,"https://www.google.com/maps/search/?api=1&query=Cherukara+Gardens,+Poojapura,+Poojappura,+Thiruvananthapuram+695012",X-Ray,Ultrasound,,
67cdda3e725df3b508c64740,Ddrc Srl Diagnostics Pvt Ltd,"No.10/784 A, M C Road, Vattappara, Thiruvananthapuram",Thiruvananthapuram,Kerala,695028,+91-9847100050,ddrcmcroad@keraladiagnostics.in,https://www.keraladiagnostics.in/ddrc-mc-road,Dr. Dinesh Kumar,Medical Diagnosis Lab,8 AM - 8 PM,"https://www.google.com/maps/search/?api=1&query=No.10/784+A,+M+C+Road,+Vattappara,+Thiruvananthapuram+695028",Blood Tests,ECG,,
67cdda3e725df3b508c64741,Adithi Diagnostic Services,"Vengode, Keezhthonnakkal, Thiruvananthapuram",Thiruvananthapuram,Kerala,695589,+91-9847100051,adithidiag@keraladiagnostics.in,https://www.keraladiagnostics.in/adithi-diagnostic-services,Dr. Adithi Menon,Medical Diagnosis Lab,8 AM - 8 PM,"https://www.google.com/maps/search/?api=1&query=Vengode,+Keezhthonnakkal,+Thiruvananthapuram+695589",Complete Blood Count,Lipid Profile,Thyroid Function Test,
67cdda3e725df3b508c64742,Ddrc Srl Diagnostic Services,"Mangalapuram, Thiruvananthapuram",Thiruvananthapuram,Kerala,695313,+91-9847100052,ddrcmangalapuram@keraladiagnostics.in,https://www.keraladiagnostics.in/ddrc-diagnostic-mangalapuram,Dr. Manoj Pillai,Medical Diagnosis Lab,8 AM - 8 PM,"https://www.google.com/maps/search/?api=1&query=Mangalapuram,+Thiruvananthapuram+695313",Blood Tests,ECG,,
67cdda3e725df3b508c64743,Cee Vees Imaging & Healthcare Research Pvt Ltd,"Kims Hospital, Aakkulam, Vinod Nagar Road, Anayara, Thiruvananthapuram",Thiruvananthapuram,Kerala,695029,+91-9847100053,ceevees@keraladiagnostics.in,https://www.keraladiagnostics.in/ceevees-imaging,Dr. Cephas George,Medical Diagnosis Lab,8 AM - 8 PM,"https://www.google.com/maps/search/?api=1&query=Kims+Hospital,+Aakkulam,+Vinod+Nagar+Road,+Anayara,+Thiruvananthapuram+695029",MRI,CT Scan,,
67cdda3e725df3b508c64744,Sivagiri Scans,"Varkala, Thiruvananthapuram",Thiruvananthapuram,Kerala,695141,+91-9847100054,sivagiriscans@keraladiagnostics.in,https://www.keraladiagnostics.in/sivagiri-scans,Dr. Sivagiri Nair,Medical Diagnosis Lab,8 AM - 8 PM,"https://www.google.com/maps/search/?api=1&query=Varkala,+Thiruvananthapuram+695141",Ultrasound,CT Scan,,
67cdda3e725df3b508c64745,Ddrc Srl Diagnostics Pvt Ltd,"Madhav Enclave, Peroorkkada, Thiruvananthapuram",Thiruvananthapuram,Kerala,695005,+91-9847100055,ddrcmadhav@keraladiagnostics.in,https://www.keraladiagnostics.in/ddrc-diagnostics-madhav,Dr. Madhavan Pillai,Medical Diagnosis Lab,8 AM - 8 PM,"https://www.google.com/maps/search/?api=1&query=Madhav+Enclave,+Peroorkkada,+Thiruvananthapuram+695005",Blood Tests,X-Ray,,
67cdda3e725df3b508c64746,Mds Medical Diagnostic Services,"Tc 72/1216, Manacaud Road, Manacaud, Thiruvananthapuram",Thiruvananthapuram,Kerala,695009,+91-9847100056,mdsdiagnostic@keraladiagnostics.in,https://www.keraladiagnostics.in/mds-medical-diagnostic-services,Dr. MDS Varghese,Medical Diagnosis Lab,8 AM - 8 PM,"https://www.google.com/maps/search/?api=1&query=Tc+72/1216,+Manacaud+Road,+Manacaud,+Thiruvananthapuram+695009",Blood Tests,ECG,,
67cdda3e725df3b508c64747,Octal Diagnostic Centre Nettayam,"TC – 33/2517, Nettayam Building, Nettayam, Vattiyoorkavu, Thiruvananthapuram",Thiruvananthapuram,Kerala,695013,+91-9847100057,octalnettayam@keraladiagnostics.in,https://www.keraladiagnostics.in/octal-diagnostic-centre-nettayam,Dr. Octal Nair,Medical Diagnosis Lab,8 AM - 8 PM,"https://www.google.com/maps/search/?api=1&query=TC+–+33/2517,+Nettayam+Building,+Nettayam,+Vattiyoorkavu,+Thiruvananthapuram+695013",CT Scan,MRI,,
67cdda3e725df3b508c64748,S N Clinical Laboratory,"Bharathanoor, Vamanapuram Chittar Road, Bharathannoor, Thiruvananthapuram",Thiruvananthapuram,Kerala,695609,+91-9847100058,snclinical@keraladiagnostics.in,https://www.keraladiagnostics.in/sn-clinical-laboratory,Dr. SN Pillai,Medical Diagnosis Lab,8 AM - 8 PM,"https://www.google.com/maps/search/?api=1&query=Bharathanoor,+Vamanapuram+Chittar+Road,+Bharathannoor,+Thiruvananthapuram+695609",Blood Tests,ECG,Urine Analysis,
67cdda3e725df3b508c64749,Muthoot Diagnostic Lab,"Opposite Puthupali Line, Thiruvananthapuram Medical College, Thiruvananthapuram",Thiruvananthapuram,Kerala,695011,+91-9847100059,muthootlab@keraladiagnostics.in,https://www.keraladiagnostics.in/muthoot-diagnostic-lab,Dr. Muthoot Menon,Medical Diagnosis Lab,8 AM - 8 PM,"https://www.google.com/maps/search/?api=1&query=Opposite+Puthupali+Line,+Thiruvananthapuram+Medical+College,+Thiruvananthapuram+695011",Blood Tests,ECG,,
67cdda3e725df3b508c6474a,MDC Scans and Laboratory,"Pampooreth Tower, Pazhaya Road, Ulloor, Thiruvananthapuram",Thiruvananthapuram,Kerala,695011,+91-9847100060,mdcscans@keraladiagnostics.in,https://www.keraladiagnostics.in/mdc-scans-laboratory,Dr. MDC Kumar,Medical Diagnosis Lab,8 AM - 8 PM,"https://www.google.com/maps/search/?api=1&query=Pampooreth+Tower,+Pazhaya+Road,+Ulloor,+Thiruvananthapuram+695011",X-Ray,Ultrasound,,
67cdda3e725df3b508c6474b,Metropolis Healthcare Ltd,"Apolo Clinic Trivandrum, Law College Junction, Pattom, Thiruvananthapuram",Thiruvananthapuram,Kerala,695033,+91-9847100061,metropolis@keraladiagnostics.in,https://www.keraladiagnostics.in/metropolis-healthcare,Dr. Metro Varghese,Medical Diagnosis Lab,8 AM - 8 PM,"https://www.google.com/maps/search/?api=1&query=Apolo+Clinic+Trivandrum,+Law+College+Junction,+Pattom,+Thiruvananthapuram+695033",Blood Tests,ECG,,
67cdda3e725df3b508c6474c,Dna Labs India,"Kumarapuram, Thiruvananthapuram",Thiruvananthapuram,Kerala,695011,+91-9847100062,dnalabs@keraladiagnostics.in,https://www.keraladiagnostics.in/dna-labs-india,Dr. DNA Nair,Medical Diagnosis Lab,8 AM - 8 PM,"https://www.google.com/maps/search/?api=1&query=Kumarapuram,+Thiruvananthapuram+695011",Blood Tests,DNA Analysis,,
67cdda3e725df3b508c6474d,Maharaja Medical Centre,"Lords Hospital, Anayara Junction, Anayara, Thiruvananthapuram",Thiruvananthapuram,Kerala,695029,+91-9847100063,maharajamed@keraladiagnostics.in,https://www.keraladiagnostics.in/maharaja-medical-centre,Dr. Maharaja Menon,Medical Diagnosis Lab,8 AM - 8 PM,"https://www.google.com/maps/search/?api=1&query=Lords+Hospital,+Anayara+Junction,+Anayara,+Thiruvananthapuram+695029",Blood Tests,ECG,Urine Analysis,
67cdda3e725df3b508c6474e,Travancore Scans PVT.LTD.,"Medical College, Thiruvananthapuram",Thiruvananthapuram,Kerala,695011,+91-9847100064,travancorescans@keraladiagnostics.in,https://www.keraladiagnostics.in/travancore-scans,Dr. Travancore Pillai,Medical Diagnosis Lab,8 AM - 8 PM,"https://www.google.com/maps/search/?api=1&query=Medical+College,+Thiruvananthapuram+695011",CT Scan,MRI,,
67cdda3e725df3b508c6474f,Santhawanam Health Care,"Thiruvananthapuram Medical College, Thiruvananthapuram",Thiruvananthapuram,Kerala,695011,+91-9847100065,santhawanam@keraladiagnostics.in,https://www.keraladiagnostics.in/santhawanam-health-care,Dr. Santhosh Nair,Medical Diagnosis Lab,8 AM - 8 PM,"https://www.google.com/maps/search/?api=1&query=Thiruvananthapuram+Medical+College,+Thiruvananthapuram+695011",Blood Tests,ECG,,
67cdda3e725df3b508c64750,Care Diagnostics,"Kowdiar, Ambalamukku, Thiruvananthapuram",Thiruvananthapuram,Kerala,695005,+91-9847100066,carediagnostics@keraladiagnostics.in,https://www.keraladiagnostics.in/care-diagnostics,Dr. Carekumar,Medical Diagnosis Lab,8 AM - 8 PM,"https://www.google.com/maps/search/?api=1&query=Kowdiar,+Ambalamukku,+Thiruvananthapuram+695005",Blood Tests,Urine Analysis,,
67cdda3e725df3b508c64751,Medall Collection Centre,"Chengottukonam Branch, Sreekariyam Pothencode Road, Thiruvananthapuram",Thiruvananthapuram,Kerala,695587,+91-9847100067,medallcollection@keraladiagnostics.in,https://www.keraladiagnostics.in/medall-collection-centre,Dr. Medall Menon,Medical Diagnosis Lab,8 AM - 8 PM,"https://www.google.com/maps/search/?api=1&query=Chengottukonam+Branch,+Sreekariyam+Pothencode+Road,+Thiruvananthapuram+695587",Blood Tests,ECG,Ultrasound,
67cdda3e725df3b508c64752,Kripa Lab,"Thiruvathira Building, Mannanathala, Thiruvananthapuram",Thiruvananthapuram,Kerala,695015,+91-9847100068,kripalab@keraladiagnostics.in,https://www.keraladiagnostics.in/kripa-lab,Dr. Kripa Nair,Medical Diagnosis Lab,8 AM - 8 PM,"https://www.google.com/maps/search/?api=1&query=Thiruvathira+Building,+Mannanathala,+Thiruvananthapuram+695015",Blood Tests,X-Ray,,
67cdda3e725df3b508c64753,Model Diagnostic Service,"Sreekaryam, Chenkottukonam, Chembazhanthy, Thiruvananthapuram",Thiruvananthapuram,Kerala,695587,+91-9847100069,modeldiagnostic@keraladiagnostics.in,https://www.keraladiagnostics.in/model-diagnostic-service,Dr. Model Varghese,Medical Diagnosis Lab,8 AM - 8 PM,"https://www.google.com/maps/search/?api=1&query=Sreekaryam,+Chenkottukonam,+Chembazhanthy,+Thiruvananthapuram+695587",Blood Tests,ECG,Ultrasound,
67cdda3e725df3b508c64754,Balaji Scans Clinical Laboratory,"Kochar Road, Aryasala, Thiruvananthapuram",Thiruvananthapuram,Kerala,695036,+91-9847100070,balajiscans@keraladiagnostics.in,https://www.keraladiagnostics.in/balaji-scans-clinical-laboratory,Dr. Balaji Nair,Medical Diagnosis Lab,8 AM - 8 PM,"https://www.google.com/maps/search/?api=1&query=Kochar+Road,+Aryasala,+Thiruvananthapuram+695036",CT Scan,X-Ray,,
67cdda3e725df3b508c64755,Medical Diagnostics Service,"Manacaud, Thiruvananthapuram",Thiruvananthapuram,Kerala,695009,+91-9847100071,medicaldiagnostic@keraladiagnostics.in,https://www.keraladiagnostics.in/medical-diagnostics-service,Dr. Medish Kumar,Medical Diagnosis Lab,8 AM - 8 PM,"https://www.google.com/maps/search/?api=1&query=Manacaud,+Thiruvananthapuram+695009",Blood Tests,Urine Analysis,,
67cdda3e725df3b508c64756,Trinity Diagnostic Center,"Gandhipuram Road, Pangappara, Thiruvananthapuram",Thiruvananthapuram,Kerala,695581,+91-9847100072,trinitydiag@keraladiagnostics.in,https://www.keraladiagnostics.in/trinity-diagnostic-center,Dr. Trinity Menon,Medical Diagnosis Lab,8 AM - 8 PM,"https://www.google.com/maps/search/?api=1&query=Gandhipuram+Road,+Pangappara,+Thiruvananthapuram+695581",Blood Tests,ECG,X-Ray,
67cdda3e725df3b508c64757,Karunya Poly Clinical Laboratory And Ecg,"Karamanna Nedungad, Judgee Road, Karamana, Thiruvananthapuram",Thiruvananthapuram,Kerala,695002,+91-9847100073,karunyapoly@keraladiagnostics.in,https://www.keraladiagnostics.in/karunya-poly-clinical-lab,Dr. Karunya Pillai,Medical Diagnosis Lab,8 AM - 8 PM,"https://www.google.com/maps/search/?api=1&query=Karamanna+Nedungad,+Judgee+Road,+Karamana,+Thiruvananthapuram+695002",Blood Tests,ECG,,
67cdda3e725df3b508c64758,Mdc Scans And Labortory,"Pambarath House, Medical College, Thiruvananthapuram",Thiruvananthapuram,Kerala,695012,+91-9847100074,mdcscanslab@keraladiagnostics.in,https://www.keraladiagnostics.in/mdc-scans-and-labortory,Dr. MDC Varghese,Medical Diagnosis Lab,8 AM - 8 PM,"https://www.google.com/maps/search/?api=1&query=Pambarath+House,+Medical+College,+Thiruvananthapuram+695012",X-Ray,CT Scan,,
67cdda3e725df3b508c64759,St. Mary's Clinical Lab,"S.S. Shopping Complex, Thirumala, Thiruvananthapuram",Thiruvananthapuram,Kerala,695006,+91-9847100075,stmary@keraladiagnostics.in,https://www.keraladiagnostics.in/st-marys-clinical-lab,Dr. Marykutty,Medical Diagnosis Lab,8 AM - 8 PM,"https://www.google.com/maps/search/?api=1&query=S.S.+Shopping+Complex,+Thirumala,+Thiruvananthapuram+695006",Blood Tests,Urine Analysis,,
67cdda3e725df3b508c6475a,Ddrc Srl Diagnostics Pvt Ltd,"G Y Trust Building, Kazhakuttam, Thiruvananthapuram",Thiruvananthapuram,Kerala,695585,+91-9847100076,ddrcgy@keraladiagnostics.in,https://www.keraladiagnostics.in/ddrc-gy-trust,Dr. Gopal Nair,Medical Diagnosis Lab,8 AM - 8 PM,"https://www.google.com/maps/search/?api=1&query=G+Y+Trust+Building,+Kazhakuttam,+Thiruvananthapuram+695585",Blood Tests,ECG,,
67cdda3e725df3b508c6475b,Adithi Diagnostic Services,Thiruvananthapuram,Thiruvananthapuram,Kerala,695301,+91-9847100077,adithidiag2@keraladiagnostics.in,https://www.keraladiagnostics.in/adithi-diagnostic-services-2,Dr. Adithi Menon,Medical Diagnosis Lab,8 AM - 8 PM,https://www.google.com/maps/search/?api=1&query=Thiruvananthapuram+695301,Complete Blood Count,Lipid Profile,Thyroid Function Test,
67cdda3e725df3b508c6475c,Anugraha Diagnostic Centre,"Vencode Sut Ams Road, Thiruvananthapuram",Thiruvananthapuram,Kerala,695028,+91-9847100078,anugraha@keraladiagnostics.in,https://www.keraladiagnostics.in/anugraha-diagnostic-centre,Dr. Anugraha Pillai,Medical Diagnosis Lab,8 AM - 8 PM,"https://www.google.com/maps/search/?api=1&query=Vencode+Sut+Ams+Road,+Thiruvananthapuram+695028",Blood Tests,X-Ray,,
67cdda3e725df3b508c6475d,Santhwana Clinical Lab & Ecg,"Aruvikkara, Thiruvananthapuram",Thiruvananthapuram,Kerala,695564,+91-9847100079,santhwanaclinical@keraladiagnostics.in,https://www.keraladiagnostics.in/santhwana-clinical-lab,Dr. Santhwana Nair,Medical Diagnosis Lab,8 AM - 8 PM,"https://www.google.com/maps/search/?api=1&query=Aruvikkara,+Thiruvananthapuram+695564",ECG,Blood Tests,,
67cdda3e725df3b508c6475e,Max Diagnostic Center,"Panavoor, Panavoor, Thiruvananthapuram",Thiruvananthapuram,Kerala,695568,+91-9847100080,maxdiagnostic@keraladiagnostics.in,https://www.keraladiagnostics.in/max-diagnostic-center,Dr. Max Varghese,Medical Diagnosis Lab,8 AM - 8 PM,"https://www.google.com/maps/search/?api=1&query=Panavoor,+Panavoor,+Thiruvananthapuram+695568",CT Scan,MRI,,
67cdda3e725df3b508c6475f,CSM Clinic,"Chullimanoor, Nedumangadu, Ponmudi Road, Nedumangadu, Thiruvananthapuram",Thiruvananthapuram,Kerala,695541,+91-9847100081,csmclinic@keraladiagnostics.in,https://www.keraladiagnostics.in/csm-clinic,Dr. CSM Pillai,Medical Diagnosis Lab,8 AM - 8 PM,"https://www.google.com/maps/search/?api=1&query=Chullimanoor,+Nedumangadu,+Ponmudi+Road,+Nedumangadu,+Thiruvananthapuram+695541",Blood Tests,ECG,,
67cdda3e725df3b508c64760,Health Care Clinical Laboratory,"Panavoor, Thiruvananthapuram",Thiruvananthapuram,Kerala,695568,+91-9847100082,healthcareclinic@keraladiagnostics.in,https://www.keraladiagnostics.in/health-care-clinical-laboratory,Dr. Health Nair,Medical Diagnosis Lab,8 AM - 8 PM,"https://www.google.com/maps/search/?api=1&query=Panavoor,+Thiruvananthapuram+695568",Blood Tests,Urine Analysis,,
67cdda3e725df3b508c64761,Karthika Computerised Laboratory,"Uchakkada, Vizhinjam Road, Balaramapuram, Thiruvananthapuram",Thiruvananthapuram,Kerala,695501,+91-9847100083,karthikacomputerised@keraladiagnostics.in,https://www.keraladiagnostics.in/karthika-computerised-laboratory,Dr. Karthika Menon,Medical Diagnosis Lab,8 AM - 8 PM,"https://www.google.com/maps/search/?api=1&query=Uchakkada,+Vizhinjam+Road,+Balaramapuram,+Thiruvananthapuram+695501",Blood Tests,ECG,,
67cdda3e725df3b508c64762,Universal Laboratory,"Tharangini Plaza, NH1 Road, Venjaramoodu, Thiruvananthapuram",Thiruvananthapuram,Kerala,695607,+91-9847100084,universallab@keraladiagnostics.in,https://www.keraladiagnostics.in/universal-laboratory,Dr. Universal Varghese,Medical Diagnosis Lab,8 AM - 8 PM,"https://www.google.com/maps/search/?api=1&query=Tharangini+Plaza,+NH1+Road,+Venjaramoodu,+Thiruvananthapuram+695607",Blood Tests,ECG,X-Ray,
67cdda3e725df3b508c64763,Sg Lab,"Old Post Office Building, Theatre Junction, Vizhinajam, Thiruvananthapuram",Thiruvananthapuram,Kerala,695521,+91-9847100085,sglab@keraladiagnostics.in,https://www.keraladiagnostics.in/sg-lab,Dr. SG Pillai,Medical Diagnosis Lab,8 AM - 8 PM,"https://www.google.com/maps/search/?api=1&query=Old+Post+Office+Building,+Theatre+Junction,+Vizhinajam,+Thiruvananthapuram+695521",Blood Tests,Urine Analysis,,
67cdda3e725df3b508c64764,Karthika Clinical Laboratory,"Balaramapuram Poovar Road, Nellimoodu, Thiruvananthapuram",Thiruvananthapuram,Kerala,695524,+91-9847100086,karthikaclinical@keraladiagnostics.in,https://www.keraladiagnostics.in/karthika-clinical-laboratory,Dr. Karthika Nair,Medical Diagnosis Lab,8 AM - 8 PM,"https://www.google.com/maps/search/?api=1&query=Balaramapuram+Poovar+Road,+Nellimoodu,+Thiruvananthapuram+695524",Blood Tests,ECG,,
67cdda3e725df3b508c64765,Ddrc Srl Diagnostics Pvt Ltd,"CNC Hospitel, Valiyakada-Sarkara Road, Chirayankeezhu West, Thiruvananthapuram",Thiruvananthapuram,Kerala,695304,+91-9847100087,ddrccnc@keraladiagnostics.in,https://www.keraladiagnostics.in/ddrc-cnc-hospitel,Dr. CNC Nair,Medical Diagnosis Lab,8 AM - 8 PM,"https://www.google.com/maps/search/?api=1&query=CNC+Hospitel,+Valiyakada-Sarkara+Road,+Chirayankeezhu+West,+Thiruvananthapuram+695304",Blood Tests,ECG,,
67cdda3e725df3b508c64766,Ddrc Srl Diagnostics Pvt Ltd,"S P Building, Chirayankeezhu West, Thiruvananthapuram",Thiruvananthapuram,Kerala,695304,+91-9847100088,ddrcsp@keraladiagnostics.in,https://www.keraladiagnostics.in/ddrc-sp-building,Dr. SP Menon,Medical Diagnosis Lab,8 AM - 8 PM,"https://www.google.com/maps/search/?api=1&query=S+P+Building,+Chirayankeezhu+West,+Thiruvananthapuram+695304",Blood Tests,Urine Analysis,,
67cdda3e725df3b508c64767,A.G Diagnostics Centre,"A.G Diagnostics Centre, Uchakkada, Thiruvananthapuram",Thiruvananthapuram,Kerala,695506,+91-9847100089,agdianostics@keraladiagnostics.in,https://www.keraladiagnostics.in/ag-diagnostics-centre,Dr. AG Pillai,Medical Diagnosis Lab,8 AM - 8 PM,"https://www.google.com/maps/search/?api=1&query=A.G+Diagnostics+Centre,+Uchakkada,+Thiruvananthapuram+695506",Blood Tests,ECG,,
67cdda3e725df3b508c64768,Span Diagnostics,Thiruvananthapuram,Thiruvananthapuram,Kerala,695605,+91-9847100090,spandiagnostics@keraladiagnostics.in,https://www.keraladiagnostics.in/span-diagnostics,Dr. Span Varghese,Medical Diagnosis Lab,8 AM - 8 PM,https://www.google.com/maps/search/?api=1&query=Thiruvananthapuram+695605,Blood Tests,ECG,,
67cdda3e725df3b508c64769,Sam Diagnostic Centre,"Panvel Kochi Kanyakumari Highway, Parassala, Thiruvananthapuram",Thiruvananthapuram,Kerala,695502,+91-9847100091,samdiag@keraladiagnostics.in,https://www.keraladiagnostics.in/sam-diagnostic-centre,Dr. Samkutty,Medical Diagnosis Lab,8 AM - 8 PM,"https://www.google.com/maps/search/?api=1&query=Panvel+Kochi+Kanyakumari+Highway,+Parassala,+Thiruvananthapuram+695502",Blood Tests,ECG,,
67cdda3e725df3b508c6476a,RUBY LABORATORIES,"CRYSTAL PLAZA, Fishmarket Road, Punnamoodu, Thiruvananthapuram",Thiruvananthapuram,Kerala,695141,+91-9847100092,rubylabs@keraladiagnostics.in,https://www.keraladiagnostics.in/ruby-laboratories,Dr. Ruby Nair,Medical Diagnosis Lab,8 AM - 8 PM,"https://www.google.com/maps/search/?api=1&query=CRYSTAL+PLAZA,+Fishmarket+Road,+Punnamoodu,+Thiruvananthapuram+695141",Blood Tests,ECG,X-Ray,
67cdda3e725df3b508c6476b,Ddrc Srl Diagnostic Services,"Rainbow Castle, Varkalapapanasam Road, Varkala, Thiruvananthapuram",Thiruvananthapuram,Kerala,695141,+91-9847100093,ddrcrainbow@keraladiagnostics.in,https://www.keraladiagnostics.in/ddrc-diagnostic-rainbow,Dr. Rainbow Pillai,Medical Diagnosis Lab,8 AM - 8 PM,"https://www.google.com/maps/search/?api=1&query=Rainbow+Castle,+Varkalapapanasam+Road,+Varkala,+Thiruvananthapuram+695141",CT Scan,MRI,,
67cdda3e725df3b508c6476c,Travancore Scans Pvt Ltd,"Ummans Building, Drobalamukku, Peroorkkada, Thiruvananthapuram",Thiruvananthapuram,Kerala,695005,+91-9847100094,travancorescans@keraladiagnostics.in,https://www.keraladiagnostics.in/travancore-scans-pvt-ltd,Dr. Travancore Varghese,Medical Diagnosis Lab,8 AM - 8 PM,"https://www.google.com/maps/search/?api=1&query=Ummans+Building,+Drobalamukku,+Peroorkkada,+Thiruvananthapuram+695005",CT Scan,MRI,,
67cdda3e725df3b508c6476d,Mammy Diagnostics Laboratory,"Powdikonam, Thiruvananthapuram",Thiruvananthapuram,Kerala,695588,+91-9847100095,mammydiag@keraladiagnostics.in,https://www.keraladiagnostics.in/mammy-diagnostics-laboratory,Dr. Mammy Nair,Medical Diagnosis Lab,8 AM - 8 PM,"https://www.google.com/maps/search/?api=1&query=Powdikonam,+Thiruvananthapuram+695588",Blood Tests,Ultrasound,,
67cdda3e725df3b508c6476e,Lab Man Diagnostic Centre,"Tc 17/413, Poojappura, Thiruvananthapuram",Thiruvananthapuram,Kerala,695012,+91-9847100096,labmandiag@keraladiagnostics.in,https://www.keraladiagnostics.in/lab-man-diagnostic-centre,Dr. Labman Menon,Medical Diagnosis Lab,8 AM - 8 PM,"https://www.google.com/maps/search/?api=1&query=Tc+17/413,+Poojappura,+Thiruvananthapuram+695012",Blood Tests,ECG,,
67cdda3e725df3b508c6476f,Lifeline Diagnostic Centre,"Sree & Sree Heights, Thaliyal, Karamana, Thiruvananthapuram",Thiruvananthapuram,Kerala,695002,+91-9847100097,lifelinediag@keraladiagnostics.in,https://www.keraladiagnostics.in/lifeline-diagnostic-centre,Dr. Lifeline Pillai,Medical Diagnosis Lab,8 AM - 8 PM,"https://www.google.com/maps/search/?api=1&query=Sree+%26+Sree+Heights,+Thaliyal,+Karamana,+Thiruvananthapuram+695002",Blood Tests,ECG,Ultrasound,
67cdda3e725df3b508c64770,Dowli Auto Electrical Diagnostic Center,"Narikkal Junction, Kattaikonam, Pothencode Main Road, Pothencode, Thiruvananthapuram",Thiruvananthapuram,Kerala,695584,+91-9847100098,dowlidiag@keraladiagnostics.in,https://www.keraladiagnostics.in/dowli-auto-electrical-diagnostic,Dr. Dowli Nair,Medical Diagnosis Lab,8 AM - 8 PM,"https://www.google.com/maps/search/?api=1&query=Narikkal+Junction,+Kattaikonam,+Pothencode+Main+Road,+Pothencode,+Thiruvananthapuram+695584",ECG,X-Ray,,
67cdda3e725df3b508c64771,R C T Diagnostic Center,"Tanal Building, Thachottukavu, Peyad, Thiruvananthapuram",Thiruvananthapuram,Kerala,695573,+91-9847100099,rctdiagnostic@keraladiagnostics.in,https://www.keraladiagnostics.in/rct-diagnostic-center,Dr. RCT Menon,Medical Diagnosis Lab,8 AM - 8 PM,"https://www.google.com/maps/search/?api=1&query=Tanal+Building,+Thachottukavu,+Peyad,+Thiruvananthapuram+695573",Blood Tests,ECG,,
67cdda3e725df3b508c64772,Life Care Scan And Diagnostics,"Nedumangad, Nedumangadu, Thiruvananthapuram",Thiruvananthapuram,Kerala,695541,+91-9847100100,lifecare@keraladiagnostics.in,https://www.keraladiagnostics.in/life-care-scan-diagnostics,Dr. Lifecare Pillai,Medical Diagnosis Lab,8 AM - 8 PM,"https://www.google.com/maps/search/?api=1&query=Nedumangad,+Nedumangadu,+Thiruvananthapuram+695541",Blood Tests,ECG,,
67cdda3e725df3b508c64773,Metromedicare LAB,"Near Govt Hospital, Kanyakulangara, Kanyakulangara, Thiruvananthapuram",Thiruvananthapuram,Kerala,695615,+91-9847100101,metromedicare@keraladiagnostics.in,https://www.keraladiagnostics.in/metromedicare-lab,Dr. Metro Nair,Medical Diagnosis Lab,8 AM - 8 PM,"https://www.google.com/maps/search/?api=1&query=Near+Govt+Hospital,+Kanyakulangara,+Kanyakulangara,+Thiruvananthapuram+695615",Blood Tests,ECG,,
67cdda3e725df3b508c64774,Zoya Diagnostic Centre,"Padinjattumukku Channankara Road, Thiruvananthapuram",Thiruvananthapuram,Kerala,695586,+91-9847100102,zoyadiag@keraladiagnostics.in,https://www.keraladiagnostics.in/zoya-diagnostic-centre,Dr. Zoya Menon,Medical Diagnosis Lab,8 AM - 8 PM,"https://www.google.com/maps/search/?api=1&query=Padinjattumukku+Channankara+Road,+Thiruvananthapuram+695586",Blood Tests,Ultrasound,,
67cdda3e725df3b508c64775,Deeya Diagnostics Lab,"Veganoor Junction, Venganoor, Thiruvananthapuram",Thiruvananthapuram,Kerala,695523,+91-9847100103,deeyadiag@keraladiagnostics.in,https://www.keraladiagnostics.in/deeya-diagnostics-lab,Dr. Deeya Pillai,Medical Diagnosis Lab,8 AM - 8 PM,"https://www.google.com/maps/search/?api=1&query=Veganoor+Junction,+Venganoor,+Thiruvananthapuram+695523",Blood Tests,CT Scan,,
67cdda3e725df3b508c64776,Modern Diagnostic Services,"Jeevakala Building, Venjaramoodu, Thiruvananthapuram",Thiruvananthapuram,Kerala,695607,+91-9847100104,moderndiag@keraladiagnostics.in,https://www.keraladiagnostics.in/modern-diagnostic-services,Dr. Modern Varghese,Medical Diagnosis Lab,8 AM - 8 PM,"https://www.google.com/maps/search/?api=1&query=Jeevakala+Building,+Venjaramoodu,+Thiruvananthapuram+695607",Blood Tests,ECG,Ultrasound,
67cdda3e725df3b508c64777,Rro Diagnostics,"Rajasree Building, Taluk Hospital, Neyyattinkara, Thiruvananthapuram",Thiruvananthapuram,Kerala,695121,+91-9847100105,rrodiag@keraladiagnostics.in,https://www.keraladiagnostics.in/rro-diagnostics,Dr. Rro Nair,Medical Diagnosis Lab,8 AM - 8 PM,"https://www.google.com/maps/search/?api=1&query=Rajasree+Building,+Taluk+Hospital,+Neyyattinkara,+Thiruvananthapuram+695121",X-Ray,CT Scan,,
67cdda3e725df3b508c64778,Medival Diagnostic Laboratory,"Trivandrum District, NH 47, Mangalapuram, Thiruvananthapuram",Thiruvananthapuram,Kerala,695313,+91-9847100106,medival@keraladiagnostics.in,https://www.keraladiagnostics.in/medival-diagnostic-laboratory,Dr. Medival Menon,Medical Diagnosis Lab,8 AM - 8 PM,"https://www.google.com/maps/search/?api=1&query=Trivandrum+District,+NH+47,+Mangalapuram,+Thiruvananthapuram+695313",Blood Tests,Urine Analysis,,
67cdda3e725df3b508c64779,Sree Sankara Narayana Laboratory,"Sree Sankara, Pallickal Road, Navaikkulam, Thiruvananthapuram",Thiruvananthapuram,Kerala,695603,+91-9847100107,sankaranarayana@keraladiagnostics.in,https://www.keraladiagnostics.in/sree-sankara-narayana-laboratory,Dr. Sankara Nair,Medical Diagnosis Lab,8 AM - 8 PM,"https://www.google.com/maps/search/?api=1&query=Sree+Sankara,+Pallickal+Road,+Navaikkulam,+Thiruvananthapuram+695603",Blood Tests,ECG,,
67cdda3e725df3b508c6477a,Focus Diagnostics,"Palachira, Varkala, Thiruvananthapuram",Thiruvananthapuram,Kerala,695141,+91-9847100108,focusdiag@keraladiagnostics.in,https://www.keraladiagnostics.in/focus-diagnostics,Dr. Focus Varghese,Medical Diagnosis Lab,8 AM - 8 PM,"https://www.google.com/maps/search/?api=1&query=Palachira,+Varkala,+Thiruvananthapuram+695141",Blood Tests,Urine Analysis,X-Ray,
